{
    "links": {
        "self": "http://www.neowsapp.com/rest/v1/neo/3798990?api_key=iIulBulltgU6a56xZRHN4H3l9WmuAYTsLGpBGhQ2"
    },
    "id": "3798990",
    "neo_reference_id": "3798990",
    "name": "(2018 BB7)",
    "designation": "2018 BB7",
    "nasa_jpl_url": "http://ssd.jpl.nasa.gov/sbdb.cgi?sstr=3798990",
    "absolute_magnitude_h": 20.9,
    "estimated_diameter": {
        "kilometers": {
            "estimated_diameter_min": 0.1756123185,
            "estimated_diameter_max": 0.3926810818
        },
        "meters": {
            "estimated_diameter_min": 175.6123184804,
            "estimated_diameter_max": 392.6810818086
        },
        "miles": {
            "estimated_diameter_min": 0.1091204019,
            "estimated_diameter_max": 0.2440006365
        },
        "feet": {
            "estimated_diameter_min": 576.1559189633,
            "estimated_diameter_max": 1288.3238004408
        }
    },
    "is_potentially_hazardous_asteroid": false,
    "close_approach_data": [
        {
            "close_approach_date": "1995-02-14",
            "close_approach_date_full": "1995-Feb-14 20:19",
            "epoch_date_close_approach": 792793140000,
            "relative_velocity": {
                "kilometers_per_second": "3.9700596937",
                "kilometers_per_hour": "14292.2148974076",
                "miles_per_hour": "8880.626528892"
            },
            "miss_distance": {
                "astronomical": "1.7196581172",
                "lunar": "668.9470075908",
                "kilometers": "257257191.461330364",
                "miles": "159852206.3287684632"
            },
            "orbiting_body": "Juptr"
        },
        {
            "close_approach_date": "1996-09-25",
            "close_approach_date_full": "1996-Sep-25 14:21",
            "epoch_date_close_approach": 843661260000,
            "relative_velocity": {
                "kilometers_per_second": "19.2562249757",
                "kilometers_per_hour": "69322.4099124635",
                "miles_per_hour": "43074.2496481082"
            },
            "miss_distance": {
                "astronomical": "0.2520172393",
                "lunar": "98.0347060877",
                "kilometers": "37701242.202560291",
                "miles": "23426465.6050263758"
            },
            "orbiting_body": "Earth"
        },
        {
            "close_approach_date": "2010-12-08",
            "close_approach_date_full": "2010-Dec-08 09:35",
            "epoch_date_close_approach": 1291800900000,
            "relative_velocity": {
                "kilometers_per_second": "12.2169418152",
                "kilometers_per_hour": "43980.9905345695",
                "miles_per_hour": "27328.0771463274"
            },
            "miss_distance": {
                "astronomical": "0.1342575362",
                "lunar": "52.2261815818",
                "kilometers": "20084641.446967894",
                "miles": "12480017.4890451772"
            },
            "orbiting_body": "Earth"
        },
        {
            "close_approach_date": "2018-01-19",
            "close_approach_date_full": "2018-Jan-19 00:35",
            "epoch_date_close_approach": 1516322100000,
            "relative_velocity": {
                "kilometers_per_second": "14.9100968467",
                "kilometers_per_hour": "53676.3486481398",
                "miles_per_hour": "33352.3956363955"
            },
            "miss_distance": {
                "astronomical": "0.09452983",
                "lunar": "36.77210387",
                "kilometers": "14141461.2194621",
                "miles": "8787096.53869298"
            },
            "orbiting_body": "Earth"
        },
        {
            "close_approach_date": "2025-01-13",
            "close_approach_date_full": "2025-Jan-13 02:16",
            "epoch_date_close_approach": 1736734560000,
            "relative_velocity": {
                "kilometers_per_second": "6.8167261871",
                "kilometers_per_hour": "24540.2142735015",
                "miles_per_hour": "15248.3348078877"
            },
            "miss_distance": {
                "astronomical": "0.1412428118",
                "lunar": "54.9434537902",
                "kilometers": "21129623.798090866",
                "miles": "13129339.4125753108"
            },
            "orbiting_body": "Venus"
        }
    ],
    "orbital_data": {
        "orbit_id": "8",
        "orbit_determination_date": "2018-03-27 06:20:05",
        "first_observation_date": "2018-01-29",
        "last_observation_date": "2018-03-26",
        "data_arc_in_days": 56,
        "observations_used": 64,
        "orbit_uncertainty": "6",
        "minimum_orbit_intersection": ".0738568",
        "jupiter_tisserand_invariant": "3.268",
        "epoch_osculation": "2459000.5",
        "eccentricity": ".6291611120472412",
        "semi_major_axis": "2.321499017259776",
        "inclination": "8.795213807576173",
        "ascending_node_longitude": "83.45875370929544",
        "orbital_period": "1291.96629271897",
        "perihelion_distance": ".8609021139440378",
        "perihelion_argument": "345.6962374700307",
        "aphelion_distance": "3.782095920575515",
        "perihelion_time": "2459396.497290570105",
        "mean_anomaly": "249.6573189187318",
        "mean_motion": ".2786450405314928",
        "equinox": "J2000",
        "orbit_class": {
            "orbit_class_type": "APO",
            "orbit_class_description": "Near-Earth asteroid orbits which cross the Earth’s orbit similar to that of 1862 Apollo",
            "orbit_class_range": "a (semi-major axis) > 1.0 AU; q (perihelion) < 1.017 AU"
        }
    },
    "is_sentry_object": false
}